{"fetched_at":"2026-07-17T17:37:55.179Z","source":"https://celestrak.org/NORAD/elements/gp.php?GROUP=planet&FORMAT=JSON","constellation":"superdove","records":[{"OBJECT_NAME":"FLOCK 4BE-17","OBJECT_ID":"2024-149AA","EPOCH":"2026-07-17T00:59:22.676352","CLASSIFICATION_TYPE":"U","MEAN_MOTION":15.40605177,"ECCENTRICITY":0.00045219,"INCLINATION":97.3766,"RA_OF_ASC_NODE":281.6623,"ARG_OF_PERICENTER":142.2522,"MEAN_ANOMALY":217.9042,"EPHEMERIS_TYPE":0,"NORAD_CAT_ID":60492,"ELEMENT_SET_NO":999,"REV_AT_EPOCH":10685,"BSTAR":0.00023284862,"MEAN_MOTION_DOT":0.00009395,"MEAN_MOTION_DDOT":0},{"OBJECT_NAME":"FLOCK 4BE-22","OBJECT_ID":"2024-149AC","EPOCH":"2026-07-16T19:13:28.424352","CLASSIFICATION_TYPE":"U","MEAN_MOTION":15.42017658,"ECCENTRICITY":0.00048102,"INCLINATION":97.3731,"RA_OF_ASC_NODE":281.6594,"ARG_OF_PERICENTER":149.3154,"MEAN_ANOMALY":210.8375,"EPHEMERIS_TYPE":0,"NORAD_CAT_ID":60494,"ELEMENT_SET_NO":999,"REV_AT_EPOCH":10686,"BSTAR":0.00023330824,"MEAN_MOTION_DOT":0.00009868,"MEAN_MOTION_DDOT":0},{"OBJECT_NAME":"FLOCK 4BE-34","OBJECT_ID":"2024-149AD","EPOCH":"2026-07-16T21:12:15.925824","CLASSIFICATION_TYPE":"U","MEAN_MOTION":15.41983232,"ECCENTRICITY":0.00049975,"INCLINATION":97.378,"RA_OF_ASC_NODE":282.5835,"ARG_OF_PERICENTER":156.6878,"MEAN_ANOMALY":203.4597,"EPHEMERIS_TYPE":0,"NORAD_CAT_ID":60495,"ELEMENT_SET_NO":999,"REV_AT_EPOCH":10690,"BSTAR":0.00023022765,"MEAN_MOTION_DOT":0.00009726,"MEAN_MOTION_DDOT":0},{"OBJECT_NAME":"FLOCK 4BE-32","OBJECT_ID":"2024-149AF","EPOCH":"2026-07-17T00:37:28.720704","CLASSIFICATION_TYPE":"U","MEAN_MOTION":15.43125219,"ECCENTRICITY":0.00050754,"INCLINATION":97.3715,"RA_OF_ASC_NODE":282.2953,"ARG_OF_PERICENTER":153.5202,"MEAN_ANOMALY":206.6306,"EPHEMERIS_TYPE":0,"NORAD_CAT_ID":60497,"ELEMENT_SET_NO":999,"REV_AT_EPOCH":10693,"BSTAR":0.00024863085,"MEAN_MOTION_DOT":0.00010922,"MEAN_MOTION_DDOT":0},{"OBJECT_NAME":"FLOCK 4BE-11","OBJECT_ID":"2024-149AK","EPOCH":"2026-07-16T16:20:42.443520","CLASSIFICATION_TYPE":"U","MEAN_MOTION":15.43908786,"ECCENTRICITY":0.00051552,"INCLINATION":97.3694,"RA_OF_ASC_NODE":282.2039,"ARG_OF_PERICENTER":154.549,"MEAN_ANOMALY":205.6013,"EPHEMERIS_TYPE":0,"NORAD_CAT_ID":60501,"ELEMENT_SET_NO":999,"REV_AT_EPOCH":10690,"BSTAR":0.00023355441,"MEAN_MOTION_DOT":0.00010529,"MEAN_MOTION_DDOT":0},{"OBJECT_NAME":"FLOCK 4BE-24","OBJECT_ID":"2024-149AP","EPOCH":"2026-07-16T19:03:32.570208","CLASSIFICATION_TYPE":"U","MEAN_MOTION":15.44141481,"ECCENTRICITY":0.00051713,"INCLINATION":97.371,"RA_OF_ASC_NODE":282.5882,"ARG_OF_PERICENTER":164.8161,"MEAN_ANOMALY":195.3243,"EPHEMERIS_TYPE":0,"NORAD_CAT_ID":60505,"ELEMENT_SET_NO":999,"REV_AT_EPOCH":10693,"BSTAR":0.00027567943,"MEAN_MOTION_DOT":0.00012546,"MEAN_MOTION_DDOT":0},{"OBJECT_NAME":"FLOCK 4BE-29","OBJECT_ID":"2024-149AT","EPOCH":"2026-07-16T18:48:25.407360","CLASSIFICATION_TYPE":"U","MEAN_MOTION":15.45564453,"ECCENTRICITY":0.00036492,"INCLINATION":97.3807,"RA_OF_ASC_NODE":284.1262,"ARG_OF_PERICENTER":172.7321,"MEAN_ANOMALY":187.3982,"EPHEMERIS_TYPE":0,"NORAD_CAT_ID":60509,"ELEMENT_SET_NO":999,"REV_AT_EPOCH":10698,"BSTAR":0.00058010725,"MEAN_MOTION_DOT":0.00027857,"MEAN_MOTION_DDOT":0},{"OBJECT_NAME":"FLOCK 4BE-2","OBJECT_ID":"2024-149AV","EPOCH":"2026-07-16T19:13:20.797824","CLASSIFICATION_TYPE":"U","MEAN_MOTION":15.56038813,"ECCENTRICITY":0.00053637,"INCLINATION":97.3829,"RA_OF_ASC_NODE":286.014,"ARG_OF_PERICENTER":168.9366,"MEAN_ANOMALY":191.2008,"EPHEMERIS_TYPE":0,"NORAD_CAT_ID":60511,"ELEMENT_SET_NO":999,"REV_AT_EPOCH":10710,"BSTAR":0.00061822673,"MEAN_MOTION_DOT":0.00043143,"MEAN_MOTION_DDOT":0},{"OBJECT_NAME":"FLOCK 4BE-13","OBJECT_ID":"2024-149AW","EPOCH":"2026-07-17T04:42:03.860064","CLASSIFICATION_TYPE":"U","MEAN_MOTION":15.42650098,"ECCENTRICITY":0.00052345,"INCLINATION":97.3716,"RA_OF_ASC_NODE":282.9345,"ARG_OF_PERICENTER":149.8766,"MEAN_ANOMALY":210.2784,"EPHEMERIS_TYPE":0,"NORAD_CAT_ID":60512,"ELEMENT_SET_NO":999,"REV_AT_EPOCH":10699,"BSTAR":0.00019084174,"MEAN_MOTION_DOT":0.00008228,"MEAN_MOTION_DDOT":0},{"OBJECT_NAME":"FLOCK 4BE-27","OBJECT_ID":"2024-149AX","EPOCH":"2026-07-16T19:06:07.035264","CLASSIFICATION_TYPE":"U","MEAN_MOTION":15.34935178,"ECCENTRICITY":0.00041758,"INCLINATION":97.3822,"RA_OF_ASC_NODE":279.67,"ARG_OF_PERICENTER":176.4882,"MEAN_ANOMALY":183.6392,"EPHEMERIS_TYPE":0,"NORAD_CAT_ID":60513,"ELEMENT_SET_NO":999,"REV_AT_EPOCH":10668,"BSTAR":0.00016157875,"MEAN_MOTION_DOT":0.00005394,"MEAN_MOTION_DDOT":0},{"OBJECT_NAME":"FLOCK 4BE-9","OBJECT_ID":"2024-149AY","EPOCH":"2026-07-16T16:42:28.181664","CLASSIFICATION_TYPE":"U","MEAN_MOTION":15.41640499,"ECCENTRICITY":0.00038347,"INCLINATION":97.3789,"RA_OF_ASC_NODE":282.2704,"ARG_OF_PERICENTER":166.7214,"MEAN_ANOMALY":193.4134,"EPHEMERIS_TYPE":0,"NORAD_CAT_ID":60514,"ELEMENT_SET_NO":999,"REV_AT_EPOCH":10686,"BSTAR":0.00028512528,"MEAN_MOTION_DOT":0.00011929,"MEAN_MOTION_DDOT":0},{"OBJECT_NAME":"FLOCK 4BE-6","OBJECT_ID":"2024-149BA","EPOCH":"2026-07-16T19:31:58.338624","CLASSIFICATION_TYPE":"U","MEAN_MOTION":15.40346521,"ECCENTRICITY":0.00045031,"INCLINATION":97.3785,"RA_OF_ASC_NODE":281.6903,"ARG_OF_PERICENTER":168.1521,"MEAN_ANOMALY":191.9832,"EPHEMERIS_TYPE":0,"NORAD_CAT_ID":60516,"ELEMENT_SET_NO":999,"REV_AT_EPOCH":10683,"BSTAR":0.00023048332,"MEAN_MOTION_DOT":0.00009219,"MEAN_MOTION_DDOT":0},{"OBJECT_NAME":"FLOCK 4BE-14","OBJECT_ID":"2024-149BB","EPOCH":"2026-07-16T18:27:36.920448","CLASSIFICATION_TYPE":"U","MEAN_MOTION":15.41887264,"ECCENTRICITY":0.00055298,"INCLINATION":97.369,"RA_OF_ASC_NODE":281.8103,"ARG_OF_PERICENTER":171.7333,"MEAN_ANOMALY":188.4006,"EPHEMERIS_TYPE":0,"NORAD_CAT_ID":60517,"ELEMENT_SET_NO":999,"REV_AT_EPOCH":10688,"BSTAR":0.00024668041,"MEAN_MOTION_DOT":0.00010395,"MEAN_MOTION_DDOT":0},{"OBJECT_NAME":"FLOCK 4BE-1","OBJECT_ID":"2024-149BC","EPOCH":"2026-07-16T19:38:54.086784","CLASSIFICATION_TYPE":"U","MEAN_MOTION":15.43549394,"ECCENTRICITY":0.00051605,"INCLINATION":97.3777,"RA_OF_ASC_NODE":283.2454,"ARG_OF_PERICENTER":171.1965,"MEAN_ANOMALY":188.9375,"EPHEMERIS_TYPE":0,"NORAD_CAT_ID":60518,"ELEMENT_SET_NO":999,"REV_AT_EPOCH":10694,"BSTAR":0.00025496786,"MEAN_MOTION_DOT":0.00011365,"MEAN_MOTION_DDOT":0},{"OBJECT_NAME":"FLOCK 4BE-28","OBJECT_ID":"2024-149BD","EPOCH":"2026-07-17T01:04:44.740992","CLASSIFICATION_TYPE":"U","MEAN_MOTION":15.46393426,"ECCENTRICITY":0.00052716,"INCLINATION":97.3742,"RA_OF_ASC_NODE":284.2976,"ARG_OF_PERICENTER":169.9373,"MEAN_ANOMALY":190.1983,"EPHEMERIS_TYPE":0,"NORAD_CAT_ID":60519,"ELEMENT_SET_NO":999,"REV_AT_EPOCH":10705,"BSTAR":0.00055835361,"MEAN_MOTION_DOT":0.00027587,"MEAN_MOTION_DDOT":0},{"OBJECT_NAME":"FLOCK 4BE-5","OBJECT_ID":"2024-149CV","EPOCH":"2026-07-16T18:33:42.964416","CLASSIFICATION_TYPE":"U","MEAN_MOTION":15.41072688,"ECCENTRICITY":0.00041829,"INCLINATION":97.3839,"RA_OF_ASC_NODE":282.0742,"ARG_OF_PERICENTER":166.6736,"MEAN_ANOMALY":193.4622,"EPHEMERIS_TYPE":0,"NORAD_CAT_ID":60559,"ELEMENT_SET_NO":999,"REV_AT_EPOCH":10683,"BSTAR":0.00023043997,"MEAN_MOTION_DOT":0.00009442,"MEAN_MOTION_DDOT":0}]}
